[{"OBJECT_NAME":"ONEWEB-0398","OBJECT_ID":"2021-132K","EPOCH":"2024-02-06T21:31:40.696320","MEAN_MOTION":13.11414157,"ECCENTRICITY":0.0001104,"INCLINATION":87.8984,"RA_OF_ASC_NODE":192.2821,"ARG_OF_PERICENTER":85.9537,"MEAN_ANOMALY":274.1717,"EPHEMERIS_TYPE":0,"CLASSIFICATION_TYPE":"U","NORAD_CAT_ID":50478,"ELEMENT_SET_NO":999,"REV_AT_EPOCH":10272,"BSTAR":-0.00026045,"MEAN_MOTION_DOT":-8.0e-7,"MEAN_MOTION_DDOT":0},{"OBJECT_NAME":"ONEWEB-0399","OBJECT_ID":"2021-132L","EPOCH":"2024-02-06T21:10:39.445536","MEAN_MOTION":13.11415534,"ECCENTRICITY":0.0001714,"INCLINATION":87.8987,"RA_OF_ASC_NODE":192.2993,"ARG_OF_PERICENTER":111.334,"MEAN_ANOMALY":248.7971,"EPHEMERIS_TYPE":0,"CLASSIFICATION_TYPE":"U","NORAD_CAT_ID":50479,"ELEMENT_SET_NO":999,"REV_AT_EPOCH":10271,"BSTAR":0.0014346,"MEAN_MOTION_DOT":5.21e-6,"MEAN_MOTION_DDOT":0},{"OBJECT_NAME":"ONEWEB-0400","OBJECT_ID":"2021-132M","EPOCH":"2024-02-06T19:27:53.035200","MEAN_MOTION":13.18684541,"ECCENTRICITY":0.000155,"INCLINATION":87.9242,"RA_OF_ASC_NODE":146.8831,"ARG_OF_PERICENTER":100.5478,"MEAN_ANOMALY":259.5829,"EPHEMERIS_TYPE":0,"CLASSIFICATION_TYPE":"U","NORAD_CAT_ID":50480,"ELEMENT_SET_NO":999,"REV_AT_EPOCH":10808,"BSTAR":-3.2278e-5,"MEAN_MOTION_DOT":0,"MEAN_MOTION_DDOT":0},{"OBJECT_NAME":"ONEWEB-0401","OBJECT_ID":"2021-132N","EPOCH":"2024-02-06T20:29:21.640416","MEAN_MOTION":13.18687367,"ECCENTRICITY":0.0001969,"INCLINATION":87.9241,"RA_OF_ASC_NODE":146.8733,"ARG_OF_PERICENTER":110.0698,"MEAN_ANOMALY":250.0646,"EPHEMERIS_TYPE":0,"CLASSIFICATION_TYPE":"U","NORAD_CAT_ID":50481,"ELEMENT_SET_NO":999,"REV_AT_EPOCH":10809,"BSTAR":0.00024032,"MEAN_MOTION_DOT":1.08e-6,"MEAN_MOTION_DDOT":0},{"OBJECT_NAME":"ONEWEB-0402","OBJECT_ID":"2021-132P","EPOCH":"2024-02-06T19:39:15.434496","MEAN_MOTION":13.18687001,"ECCENTRICITY":0.0002327,"INCLINATION":87.9241,"RA_OF_ASC_NODE":146.8775,"ARG_OF_PERICENTER":102.7569,"MEAN_ANOMALY":257.3823,"EPHEMERIS_TYPE":0,"CLASSIFICATION_TYPE":"U","NORAD_CAT_ID":50482,"ELEMENT_SET_NO":999,"REV_AT_EPOCH":10811,"BSTAR":-0.00010916,"MEAN_MOTION_DOT":-3.0e-7,"MEAN_MOTION_DDOT":0},{"OBJECT_NAME":"ONEWEB-0403","OBJECT_ID":"2021-132Q","EPOCH":"2024-02-06T20:13:25.194144","MEAN_MOTION":13.1868702,"ECCENTRICITY":0.0001823,"INCLINATION":87.9242,"RA_OF_ASC_NODE":146.8776,"ARG_OF_PERICENTER":118.6744,"MEAN_ANOMALY":241.4572,"EPHEMERIS_TYPE":0,"CLASSIFICATION_TYPE":"U","NORAD_CAT_ID":50483,"ELEMENT_SET_NO":999,"REV_AT_EPOCH":10935,"BSTAR":0.00020106,"MEAN_MOTION_DOT":9.2e-7,"MEAN_MOTION_DDOT":0},{"OBJECT_NAME":"ONEWEB-0404","OBJECT_ID":"2021-132R","EPOCH":"2024-02-06T22:34:47.997120","MEAN_MOTION":13.11419577,"ECCENTRICITY":0.0001241,"INCLINATION":87.8998,"RA_OF_ASC_NODE":192.2496,"ARG_OF_PERICENTER":121.9161,"MEAN_ANOMALY":238.2088,"EPHEMERIS_TYPE":0,"CLASSIFICATION_TYPE":"U","NORAD_CAT_ID":50484,"ELEMENT_SET_NO":999,"REV_AT_EPOCH":10281,"BSTAR":0.00072455,"MEAN_MOTION_DOT":2.69e-6,"MEAN_MOTION_DDOT":0},{"OBJECT_NAME":"ONEWEB-0405","OBJECT_ID":"2021-132S","EPOCH":"2024-02-06T20:36:10.831680","MEAN_MOTION":13.18686112,"ECCENTRICITY":0.0002123,"INCLINATION":87.9244,"RA_OF_ASC_NODE":146.8638,"ARG_OF_PERICENTER":113.7332,"MEAN_ANOMALY":246.4023,"EPHEMERIS_TYPE":0,"CLASSIFICATION_TYPE":"U","NORAD_CAT_ID":50485,"ELEMENT_SET_NO":999,"REV_AT_EPOCH":10847,"BSTAR":0.00021735,"MEAN_MOTION_DOT":9.9e-7,"MEAN_MOTION_DDOT":0},{"OBJECT_NAME":"ONEWEB-0406","OBJECT_ID":"2021-132T","EPOCH":"2024-02-06T20:20:15.327168","MEAN_MOTION":13.18685419,"ECCENTRICITY":0.0001314,"INCLINATION":87.9247,"RA_OF_ASC_NODE":146.8746,"ARG_OF_PERICENTER":115.0789,"MEAN_ANOMALY":245.0479,"EPHEMERIS_TYPE":0,"CLASSIFICATION_TYPE":"U","NORAD_CAT_ID":50486,"ELEMENT_SET_NO":999,"REV_AT_EPOCH":10810,"BSTAR":-1.0004e-5,"MEAN_MOTION_DOT":9.0e-8,"MEAN_MOTION_DDOT":0},{"OBJECT_NAME":"ONEWEB-0407","OBJECT_ID":"2021-132U","EPOCH":"2024-02-06T20:11:07.914912","MEAN_MOTION":13.18684475,"ECCENTRICITY":0.0001889,"INCLINATION":87.9241,"RA_OF_ASC_NODE":146.8838,"ARG_OF_PERICENTER":113.8636,"MEAN_ANOMALY":246.2694,"EPHEMERIS_TYPE":0,"CLASSIFICATION_TYPE":"U","NORAD_CAT_ID":50487,"ELEMENT_SET_NO":999,"REV_AT_EPOCH":10933,"BSTAR":0.00010919,"MEAN_MOTION_DOT":5.6e-7,"MEAN_MOTION_DDOT":0},{"OBJECT_NAME":"ONEWEB-0409","OBJECT_ID":"2021-132V","EPOCH":"2024-02-06T22:32:28.502592","MEAN_MOTION":13.11419674,"ECCENTRICITY":8.77e-5,"INCLINATION":87.8988,"RA_OF_ASC_NODE":192.2581,"ARG_OF_PERICENTER":114.5465,"MEAN_ANOMALY":245.5755,"EPHEMERIS_TYPE":0,"CLASSIFICATION_TYPE":"U","NORAD_CAT_ID":50488,"ELEMENT_SET_NO":999,"REV_AT_EPOCH":10270,"BSTAR":0.00062194,"MEAN_MOTION_DOT":2.33e-6,"MEAN_MOTION_DDOT":0},{"OBJECT_NAME":"ONEWEB-0412","OBJECT_ID":"2021-132W","EPOCH":"2024-02-06T19:55:11.828064","MEAN_MOTION":13.18684398,"ECCENTRICITY":0.0002208,"INCLINATION":87.9246,"RA_OF_ASC_NODE":146.8794,"ARG_OF_PERICENTER":115.9547,"MEAN_ANOMALY":244.1813,"EPHEMERIS_TYPE":0,"CLASSIFICATION_TYPE":"U","NORAD_CAT_ID":50489,"ELEMENT_SET_NO":999,"REV_AT_EPOCH":10813,"BSTAR":8.786e-5,"MEAN_MOTION_DOT":4.8e-7,"MEAN_MOTION_DDOT":0},{"OBJECT_NAME":"ONEWEB-0413","OBJECT_ID":"2021-132X","EPOCH":"2024-02-06T20:02:03.713280","MEAN_MOTION":13.18690784,"ECCENTRICITY":0.0002201,"INCLINATION":87.9245,"RA_OF_ASC_NODE":146.8918,"ARG_OF_PERICENTER":108.6027,"MEAN_ANOMALY":251.5344,"EPHEMERIS_TYPE":0,"CLASSIFICATION_TYPE":"U","NORAD_CAT_ID":50490,"ELEMENT_SET_NO":999,"REV_AT_EPOCH":10807,"BSTAR":0.00016954,"MEAN_MOTION_DOT":8.0e-7,"MEAN_MOTION_DDOT":0},{"OBJECT_NAME":"ONEWEB-0414","OBJECT_ID":"2021-132Y","EPOCH":"2024-02-06T19:41:32.981568","MEAN_MOTION":13.18686217,"ECCENTRICITY":0.0001922,"INCLINATION":87.9242,"RA_OF_ASC_NODE":146.8785,"ARG_OF_PERICENTER":118.9094,"MEAN_ANOMALY":241.2232,"EPHEMERIS_TYPE":0,"CLASSIFICATION_TYPE":"U","NORAD_CAT_ID":50491,"ELEMENT_SET_NO":999,"REV_AT_EPOCH":10810,"BSTAR":8.0334e-5,"MEAN_MOTION_DOT":4.5e-7,"MEAN_MOTION_DDOT":0},{"OBJECT_NAME":"ONEWEB-0417","OBJECT_ID":"2021-132Z","EPOCH":"2024-02-06T19:52:54.700032","MEAN_MOTION":13.18688015,"ECCENTRICITY":0.0001378,"INCLINATION":87.925,"RA_OF_ASC_NODE":146.8704,"ARG_OF_PERICENTER":115.0788,"MEAN_ANOMALY":245.0487,"EPHEMERIS_TYPE":0,"CLASSIFICATION_TYPE":"U","NORAD_CAT_ID":50492,"ELEMENT_SET_NO":999,"REV_AT_EPOCH":10808,"BSTAR":0.00018049,"MEAN_MOTION_DOT":8.4e-7,"MEAN_MOTION_DDOT":0},{"OBJECT_NAME":"ONEWEB-0418","OBJECT_ID":"2021-132AA","EPOCH":"2024-02-06T20:12:16.119072","MEAN_MOTION":13.18688304,"ECCENTRICITY":0.0001261,"INCLINATION":87.9244,"RA_OF_ASC_NODE":146.8777,"ARG_OF_PERICENTER":124.3567,"MEAN_ANOMALY":235.7684,"EPHEMERIS_TYPE":0,"CLASSIFICATION_TYPE":"U","NORAD_CAT_ID":50493,"ELEMENT_SET_NO":999,"REV_AT_EPOCH":10814,"BSTAR":0.00015639,"MEAN_MOTION_DOT":7.5e-7,"MEAN_MOTION_DDOT":0},{"OBJECT_NAME":"ONEWEB-0419","OBJECT_ID":"2021-132AB","EPOCH":"2024-02-06T20:31:37.652160","MEAN_MOTION":13.18686613,"ECCENTRICITY":0.0001281,"INCLINATION":87.924,"RA_OF_ASC_NODE":146.895,"ARG_OF_PERICENTER":103.1364,"MEAN_ANOMALY":256.9911,"EPHEMERIS_TYPE":0,"CLASSIFICATION_TYPE":"U","NORAD_CAT_ID":50494,"ELEMENT_SET_NO":999,"REV_AT_EPOCH":10806,"BSTAR":0.00018016,"MEAN_MOTION_DOT":8.4e-7,"MEAN_MOTION_DDOT":0},{"OBJECT_NAME":"ONEWEB-0420","OBJECT_ID":"2021-132AC","EPOCH":"2024-02-06T19:43:49.011456","MEAN_MOTION":13.18684271,"ECCENTRICITY":0.000206,"INCLINATION":87.9242,"RA_OF_ASC_NODE":146.9104,"ARG_OF_PERICENTER":102.8021,"MEAN_ANOMALY":257.3341,"EPHEMERIS_TYPE":0,"CLASSIFICATION_TYPE":"U","NORAD_CAT_ID":50495,"ELEMENT_SET_NO":999,"REV_AT_EPOCH":10805,"BSTAR":0.00011779,"MEAN_MOTION_DOT":5.9e-7,"MEAN_MOTION_DDOT":0},{"OBJECT_NAME":"ONEWEB-0421","OBJECT_ID":"2021-132AD","EPOCH":"2024-02-06T19:34:43.622688","MEAN_MOTION":13.18686149,"ECCENTRICITY":0.0002076,"INCLINATION":87.9249,"RA_OF_ASC_NODE":146.8674,"ARG_OF_PERICENTER":118.3212,"MEAN_ANOMALY":241.8129,"EPHEMERIS_TYPE":0,"CLASSIFICATION_TYPE":"U","NORAD_CAT_ID":50496,"ELEMENT_SET_NO":999,"REV_AT_EPOCH":10809,"BSTAR":5.4983e-5,"MEAN_MOTION_DOT":3.5e-7,"MEAN_MOTION_DDOT":0},{"OBJECT_NAME":"ONEWEB-0424","OBJECT_ID":"2021-132AE","EPOCH":"2024-02-06T20:24:48.508416","MEAN_MOTION":13.18686909,"ECCENTRICITY":0.000129,"INCLINATION":87.9244,"RA_OF_ASC_NODE":146.8725,"ARG_OF_PERICENTER":91.7158,"MEAN_ANOMALY":268.4122,"EPHEMERIS_TYPE":0,"CLASSIFICATION_TYPE":"U","NORAD_CAT_ID":50497,"ELEMENT_SET_NO":999,"REV_AT_EPOCH":10812,"BSTAR":8.246e-5,"MEAN_MOTION_DOT":4.5e-7,"MEAN_MOTION_DDOT":0},{"OBJECT_NAME":"ONEWEB-0426","OBJECT_ID":"2021-132AF","EPOCH":"2024-02-06T19:30:10.159776","MEAN_MOTION":13.18687145,"ECCENTRICITY":0.000164,"INCLINATION":87.924,"RA_OF_ASC_NODE":146.9025,"ARG_OF_PERICENTER":132.9283,"MEAN_ANOMALY":227.1987,"EPHEMERIS_TYPE":0,"CLASSIFICATION_TYPE":"U","NORAD_CAT_ID":50498,"ELEMENT_SET_NO":999,"REV_AT_EPOCH":10806,"BSTAR":-4.0168e-6,"MEAN_MOTION_DOT":1.1e-7,"MEAN_MOTION_DDOT":0},{"OBJECT_NAME":"ONEWEB-0427","OBJECT_ID":"2021-132AG","EPOCH":"2024-02-06T20:22:30.675360","MEAN_MOTION":13.1868445,"ECCENTRICITY":0.0001426,"INCLINATION":87.9243,"RA_OF_ASC_NODE":146.8712,"ARG_OF_PERICENTER":110.0731,"MEAN_ANOMALY":250.0555,"EPHEMERIS_TYPE":0,"CLASSIFICATION_TYPE":"U","NORAD_CAT_ID":50499,"ELEMENT_SET_NO":999,"REV_AT_EPOCH":10809,"BSTAR":-6.9769e-7,"MEAN_MOTION_DOT":1.3e-7,"MEAN_MOTION_DDOT":0},{"OBJECT_NAME":"ONEWEB-0429","OBJECT_ID":"2021-132AH","EPOCH":"2024-02-06T20:04:18.081696","MEAN_MOTION":13.18684877,"ECCENTRICITY":0.0001791,"INCLINATION":87.9247,"RA_OF_ASC_NODE":146.8715,"ARG_OF_PERICENTER":107.0372,"MEAN_ANOMALY":253.0956,"EPHEMERIS_TYPE":0,"CLASSIFICATION_TYPE":"U","NORAD_CAT_ID":50500,"ELEMENT_SET_NO":999,"REV_AT_EPOCH":10935,"BSTAR":-5.1341e-5,"MEAN_MOTION_DOT":-7.0e-8,"MEAN_MOTION_DDOT":0},{"OBJECT_NAME":"ONEWEB-0430","OBJECT_ID":"2021-132AJ","EPOCH":"2024-02-06T19:48:24.073632","MEAN_MOTION":13.18682937,"ECCENTRICITY":0.0001546,"INCLINATION":87.9245,"RA_OF_ASC_NODE":146.8825,"ARG_OF_PERICENTER":91.3571,"MEAN_ANOMALY":268.7738,"EPHEMERIS_TYPE":0,"CLASSIFICATION_TYPE":"U","NORAD_CAT_ID":50501,"ELEMENT_SET_NO":999,"REV_AT_EPOCH":10810,"BSTAR":0.0021135,"MEAN_MOTION_DOT":8.46e-6,"MEAN_MOTION_DDOT":0}]
